{"type": "FeatureCollection", "features": [ {"type": "Feature", "properties": {"norad_id": 43262, "name": "GAOFEN-1 04", "group": "resource", "lat": -81.82278421516098, "lon": 141.84362626972174, "alt_km": 648.5633935222049, "timestamp": "2025-12-11T08:58:26.771866+00:00", "meta": {"OBJECT_NAME": "GAOFEN-1 04", "OBJECT_ID": "2018-031D", "EPOCH": "2025-12-11T04:30:26.294112", "MEAN_MOTION": 14.76443362, "ECCENTRICITY": 0.000109, "INCLINATION": 98.0804, "RA_OF_ASC_NODE": 43.0221, "ARG_OF_PERICENTER": 56.2311, "MEAN_ANOMALY": 303.9002, "EPHEMERIS_TYPE": 0, "CLASSIFICATION_TYPE": "U", "NORAD_CAT_ID": 43262, "ELEMENT_SET_NO": 999, "REV_AT_EPOCH": 41494, "BSTAR": 0.00018152, "MEAN_MOTION_DOT": 1.211e-05, "MEAN_MOTION_DDOT": 0}, "tle": {"line1": "1 43262U 18031D   25345.18780433  .00001211  00000+0  18152-3 0  9997", "line2": "2 43262  98.0804  43.0221 0001090  56.2311 303.9002 14.76443362414947"}}, "geometry": {"type": "Point", "coordinates": [141.84362626972174, -81.82278421516098]}}, {"type": "Feature", "properties": {"norad_id": 43437, "name": "SENTINEL-3B", "group": "resource", "lat": -40.08988861770578, "lon": 57.92071367069839, "alt_km": 810.0272463373267, "timestamp": "2025-12-11T08:58:26.771877+00:00", "meta": {"OBJECT_NAME": "SENTINEL-3B", "OBJECT_ID": "2018-039A", "EPOCH": "2025-12-11T04:06:53.766432", "MEAN_MOTION": 14.26741926, "ECCENTRICITY": 0.0001555, "INCLINATION": 98.6269, "RA_OF_ASC_NODE": 50.3791, "ARG_OF_PERICENTER": 104.5822, "MEAN_ANOMALY": 255.5531, "EPHEMERIS_TYPE": 0, "CLASSIFICATION_TYPE": "U", "NORAD_CAT_ID": 43437, "ELEMENT_SET_NO": 999, "REV_AT_EPOCH": 39731, "BSTAR": 0.00011128, "MEAN_MOTION_DOT": 2.26e-06, "MEAN_MOTION_DDOT": 0}, "tle": {"line1": "1 43437U 18039A   25345.17145563  .00000226  00000+0  11128-3 0  9998", "line2": "2 43437  98.6269  50.3791 0001555 104.5822 255.5531 14.26741926397317"}}, "geometry": {"type": "Point", "coordinates": [57.92071367069839, -40.08988861770578]}}, {"type": "Feature", "properties": {"norad_id": 43461, "name": "GAOFEN-5 01", "group": "resource", "lat": 36.2222700106546, "lon": 134.55526852589355, "alt_km": 690.0409388899088, "timestamp": "2025-12-11T08:58:26.771887+00:00", "meta": {"OBJECT_NAME": "GAOFEN-5 01", "OBJECT_ID": "2018-043A", "EPOCH": "2025-12-10T15:52:37.152768", "MEAN_MOTION": 14.6040665, "ECCENTRICITY": 0.00010926, "INCLINATION": 98.4324, "RA_OF_ASC_NODE": 307.5925, "ARG_OF_PERICENTER": 348.2801, "MEAN_ANOMALY": 11.8373, "EPHEMERIS_TYPE": 0, "CLASSIFICATION_TYPE": "U", "NORAD_CAT_ID": 43461, "ELEMENT_SET_NO": 999, "REV_AT_EPOCH": 40417, "BSTAR": 0.00018403532, "MEAN_MOTION_DOT": 8.42e-06, "MEAN_MOTION_DDOT": 0}, "tle": {"line1": "1 43461U 18043A   25344.66154112  .00000842  00000+0  18404-3 0  9991", "line2": "2 43461  98.4324 307.5925 0001092 348.2801  11.8373 14.60406650404170"}}, "geometry": {"type": "Point", "coordinates": [134.55526852589355, 36.2222700106546]}}, {"type": "Feature", "properties": {"norad_id": 43484, "name": "GAOFEN-6", "group": "resource", "lat": 58.465517428023155, "lon": 36.77352017166177, "alt_km": 625.3541776009524, "timestamp": "2025-12-11T08:58:26.771898+00:00", "meta": {"OBJECT_NAME": "GAOFEN-6", "OBJECT_ID": "2018-048A", "EPOCH": "2025-12-11T05:27:14.512320", "MEAN_MOTION": 14.76562589, "ECCENTRICITY": 0.0013253, "INCLINATION": 97.8029, "RA_OF_ASC_NODE": 49.5446, "ARG_OF_PERICENTER": 68.1326, "MEAN_ANOMALY": 292.1292, "EPHEMERIS_TYPE": 0, "CLASSIFICATION_TYPE": "U", "NORAD_CAT_ID": 43484, "ELEMENT_SET_NO": 999, "REV_AT_EPOCH": 40565, "BSTAR": 0.00022657, "MEAN_MOTION_DOT": 1.533e-05, "MEAN_MOTION_DDOT": 0}, "tle": {"line1": "1 43484U 18048A   25345.22725130  .00001533  00000+0  22657-3 0  9991", "line2": "2 43484  97.8029  49.5446 0013253  68.1326 292.1292 14.76562589405652"}}, "geometry": {"type": "Point", "coordinates": [36.77352017166177, 58.465517428023155]}}, {"type": "Feature", "properties": {"norad_id": 43585, "name": "GAOFEN-11 01", "group": "resource", "lat": -49.0238865143657, "lon": -139.99748348521845, "alt_km": 426.1513610100819, "timestamp": "2025-12-11T08:58:26.771909+00:00", "meta": {"OBJECT_NAME": "GAOFEN-11 01", "OBJECT_ID": "2018-063A", "EPOCH": "2025-12-11T04:53:08.479104", "MEAN_MOTION": 15.4915405, "ECCENTRICITY": 0.0004392, "INCLINATION": 97.1555, "RA_OF_ASC_NODE": 48.1502, "ARG_OF_PERICENTER": 320.8293, "MEAN_ANOMALY": 39.2641, "EPHEMERIS_TYPE": 0, "CLASSIFICATION_TYPE": "U", "NORAD_CAT_ID": 43585, "ELEMENT_SET_NO": 999, "REV_AT_EPOCH": 41118, "BSTAR": 0.00051025, "MEAN_MOTION_DOT": 0.00027735, "MEAN_MOTION_DDOT": 0}, "tle": {"line1": "1 43585U 18063A   25345.20357036  .00027735  00000+0  51025-3 0  9997", "line2": "2 43585  97.1555  48.1502 0004392 320.8293  39.2641 15.49154050411188"}}, "geometry": {"type": "Point", "coordinates": [-139.99748348521845, -49.0238865143657]}}, {"type": "Feature", "properties": {"norad_id": 43613, "name": "ICESAT-2", "group": "resource", "lat": 68.30613899893422, "lon": -124.68155372520376, "alt_km": 474.0674862557298, "timestamp": "2025-12-11T08:58:26.771920+00:00", "meta": {"OBJECT_NAME": "ICESAT-2", "OBJECT_ID": "2018-070A", "EPOCH": "2025-12-11T03:57:41.576256", "MEAN_MOTION": 15.28329689, "ECCENTRICITY": 0.0002582, "INCLINATION": 92.0043, "RA_OF_ASC_NODE": 240.3124, "ARG_OF_PERICENTER": 152.868, "MEAN_ANOMALY": 207.2705, "EPHEMERIS_TYPE": 0, "CLASSIFICATION_TYPE": "U", "NORAD_CAT_ID": 43613, "ELEMENT_SET_NO": 999, "REV_AT_EPOCH": 40374, "BSTAR": 0.00068967, "MEAN_MOTION_DOT": 0.00019042, "MEAN_MOTION_DDOT": 0}, "tle": {"line1": "1 43613U 18070A   25345.16506454  .00019042  00000+0  68967-3 0  9997", "line2": "2 43613  92.0043 240.3124 0002582 152.8680 207.2705 15.28329689403744"}}, "geometry": {"type": "Point", "coordinates": [-124.68155372520376, 68.30613899893422]}}, {"type": "Feature", "properties": {"norad_id": 43719, "name": "HYSIS", "group": "resource", "lat": 80.29554720754061, "lon": -7.064200779898876, "alt_km": 625.3234612825399, "timestamp": "2025-12-11T08:58:26.771930+00:00", "meta": {"OBJECT_NAME": "HYSIS", "OBJECT_ID": "2018-096A", "EPOCH": "2025-12-11T03:43:16.124736", "MEAN_MOTION": 14.78638987, "ECCENTRICITY": 0.0001445, "INCLINATION": 98.0095, "RA_OF_ASC_NODE": 48.1401, "ARG_OF_PERICENTER": 56.895, "MEAN_ANOMALY": 303.2399, "EPHEMERIS_TYPE": 0, "CLASSIFICATION_TYPE": "U", "NORAD_CAT_ID": 43719, "ELEMENT_SET_NO": 999, "REV_AT_EPOCH": 37963, "BSTAR": 0.00031445, "MEAN_MOTION_DOT": 2.251e-05, "MEAN_MOTION_DDOT": 0}, "tle": {"line1": "1 43719U 18096A   25345.15504774  .00002251  00000+0  31445-3 0  9999", "line2": "2 43719  98.0095  48.1401 0001445  56.8950 303.2399 14.78638987379630"}}, "geometry": {"type": "Point", "coordinates": [-7.064200779898876, 80.29554720754061]}}, {"type": "Feature", "properties": {"norad_id": 43783, "name": "KAZSTSAT", "group": "resource", "lat": -38.73461121489402, "lon": -165.41235848384954, "alt_km": 577.3198190743751, "timestamp": "2025-12-11T08:58:26.771941+00:00", "meta": {"OBJECT_NAME": "KAZSTSAT", "OBJECT_ID": "2018-099AB", "EPOCH": "2025-12-11T01:35:34.661760", "MEAN_MOTION": 14.99344949, "ECCENTRICITY": 0.000599, "INCLINATION": 97.4559, "RA_OF_ASC_NODE": 20.3232, "ARG_OF_PERICENTER": 337.2681, "MEAN_ANOMALY": 22.8276, "EPHEMERIS_TYPE": 0, "CLASSIFICATION_TYPE": "U", "NORAD_CAT_ID": 43783, "ELEMENT_SET_NO": 999, "REV_AT_EPOCH": 38311, "BSTAR": 0.00018724, "MEAN_MOTION_DOT": 2.234e-05, "MEAN_MOTION_DDOT": 0}, "tle": {"line1": "1 43783U 18099AB  25345.06637340  .00002234  00000+0  18724-3 0  9995", "line2": "2 43783  97.4559  20.3232 0005990 337.2681  22.8276 14.99344949383110"}}, "geometry": {"type": "Point", "coordinates": [-165.41235848384954, -38.73461121489402]}}, {"type": "Feature", "properties": {"norad_id": 43831, "name": "SAUDISAT 5A", "group": "resource", "lat": 36.71598258026501, "lon": -128.89580528474187, "alt_km": 482.62224627723936, "timestamp": "2025-12-11T08:58:26.771951+00:00", "meta": {"OBJECT_NAME": "SAUDISAT 5A", "OBJECT_ID": "2018-102A", "EPOCH": "2025-12-11T05:12:10.472832", "MEAN_MOTION": 15.25625916, "ECCENTRICITY": 0.0011799, "INCLINATION": 97.3353, "RA_OF_ASC_NODE": 45.4369, "ARG_OF_PERICENTER": 80.9637, "MEAN_ANOMALY": 279.2936, "EPHEMERIS_TYPE": 0, "CLASSIFICATION_TYPE": "U", "NORAD_CAT_ID": 43831, "ELEMENT_SET_NO": 999, "REV_AT_EPOCH": 38699, "BSTAR": 0.00038768, "MEAN_MOTION_DOT": 9.808e-05, "MEAN_MOTION_DDOT": 0}, "tle": {"line1": "1 43831U 18102A   25345.21678788  .00009808  00000+0  38768-3 0  9996", "line2": "2 43831  97.3353  45.4369 0011799  80.9637 279.2936 15.25625916386997"}}, "geometry": {"type": "Point", "coordinates": [-128.89580528474187, 36.71598258026501]}}, {"type": "Feature", "properties": {"norad_id": 43833, "name": "SAUDISAT 5B", "group": "resource", "lat": -13.37027579142742, "lon": -133.42967734697916, "alt_km": 495.52584872861553, "timestamp": "2025-12-11T08:58:26.771965+00:00", "meta": {"OBJECT_NAME": "SAUDISAT 5B", "OBJECT_ID": "2018-102C", "EPOCH": "2025-12-11T04:58:58.870848", "MEAN_MOTION": 15.25978502, "ECCENTRICITY": 0.0012505, "INCLINATION": 97.3447, "RA_OF_ASC_NODE": 48.1638, "ARG_OF_PERICENTER": 83.2366, "MEAN_ANOMALY": 277.0295, "EPHEMERIS_TYPE": 0, "CLASSIFICATION_TYPE": "U", "NORAD_CAT_ID": 43833, "ELEMENT_SET_NO": 999, "REV_AT_EPOCH": 38710, "BSTAR": 0.00037943, "MEAN_MOTION_DOT": 9.703e-05, "MEAN_MOTION_DDOT": 0}, "tle": {"line1": "1 43833U 18102C   25345.20762582  .00009703  00000+0  37943-3 0  9991", "line2": "2 43833  97.3447  48.1638 0012505  83.2366 277.0295 15.25978502387103"}}, "geometry": {"type": "Point", "coordinates": [-133.42967734697916, -13.37027579142742]}}]}